CCSDS_OMM_VERS = 2.0
CREATION_DATE  = 
ORIGINATOR     = 

OBJECT_NAME    = SOYUZ-MS 28
OBJECT_ID      = 2025-275A
CENTER_NAME    = EARTH
REF_FRAME      = TEME
TIME_SYSTEM    = UTC
MEAN_ELEMENT_THEORY = SGP/SGP4

EPOCH          = 2025-12-09T04:29:48.234912
MEAN_MOTION    = 15.49438460
ECCENTRICITY   = .00033664
INCLINATION    = 51.6308
RA_OF_ASC_NODE = 160.0685
ARG_OF_PERICENTER = 223.6321
MEAN_ANOMALY   = 136.4401

EPHEMERIS_TYPE = 0
CLASSIFICATION_TYPE = U
NORAD_CAT_ID   = 66664
ELEMENT_SET_NO = 999
REV_AT_EPOCH   = 128
BSTAR          = .2526091E-3
MEAN_MOTION_DOT = .13707E-3
MEAN_MOTION_DDOT = 0

CCSDS_OMM_VERS = 2.0
CREATION_DATE  = 
ORIGINATOR     = 

OBJECT_NAME    = KOMPSAT-7
OBJECT_ID      = 2025-279A
CENTER_NAME    = EARTH
REF_FRAME      = TEME
TIME_SYSTEM    = UTC
MEAN_ELEMENT_THEORY = SGP/SGP4

EPOCH          = 2025-12-09T06:29:43.022112
MEAN_MOTION    = 14.98373484
ECCENTRICITY   = .00094625
INCLINATION    = 97.6402
RA_OF_ASC_NODE = 289.2070
ARG_OF_PERICENTER = 233.0821
MEAN_ANOMALY   = 126.9535

EPHEMERIS_TYPE = 0
CLASSIFICATION_TYPE = U
NORAD_CAT_ID   = 66820
ELEMENT_SET_NO = 999
REV_AT_EPOCH   = 113
BSTAR          = .32478497E-3
MEAN_MOTION_DOT = .3817E-4
MEAN_MOTION_DDOT = 0

CCSDS_OMM_VERS = 2.0
CREATION_DATE  = 
ORIGINATOR     = 

OBJECT_NAME    = ZQ-3 R/B
OBJECT_ID      = 2025-282A
CENTER_NAME    = EARTH
REF_FRAME      = TEME
TIME_SYSTEM    = UTC
MEAN_ELEMENT_THEORY = SGP/SGP4

EPOCH          = 2025-12-08T14:53:29.353632
MEAN_MOTION    = 14.48659951
ECCENTRICITY   = .08242315
INCLINATION    = 56.9533
RA_OF_ASC_NODE = 73.3202
ARG_OF_PERICENTER = 212.8744
MEAN_ANOMALY   = 141.8352

EPHEMERIS_TYPE = 0
CLASSIFICATION_TYPE = U
NORAD_CAT_ID   = 66877
ELEMENT_SET_NO = 999
REV_AT_EPOCH   = 79
BSTAR          = .24383409E-3
MEAN_MOTION_DOT = .1149741E-1
MEAN_MOTION_DDOT = .7310405E-5

CCSDS_OMM_VERS = 2.0
CREATION_DATE  = 
ORIGINATOR     = 

OBJECT_NAME    = 1998-067XS
OBJECT_ID      = 1998-067XS
CENTER_NAME    = EARTH
REF_FRAME      = TEME
TIME_SYSTEM    = UTC
MEAN_ELEMENT_THEORY = SGP/SGP4

EPOCH          = 2025-12-08T22:13:59.028960
MEAN_MOTION    = 15.50272351
ECCENTRICITY   = .0004021
INCLINATION    = 51.6297
RA_OF_ASC_NODE = 161.3264
ARG_OF_PERICENTER = 185.5281
MEAN_ANOMALY   = 174.5664

EPHEMERIS_TYPE = 0
CLASSIFICATION_TYPE = U
NORAD_CAT_ID   = 66906
ELEMENT_SET_NO = 999
REV_AT_EPOCH   = 102
BSTAR          = .538E-3
MEAN_MOTION_DOT = .3067E-3
MEAN_MOTION_DDOT = 0

CCSDS_OMM_VERS = 2.0
CREATION_DATE  = 
ORIGINATOR     = 

OBJECT_NAME    = 1998-067XT
OBJECT_ID      = 1998-067XT
CENTER_NAME    = EARTH
REF_FRAME      = TEME
TIME_SYSTEM    = UTC
MEAN_ELEMENT_THEORY = SGP/SGP4

EPOCH          = 2025-12-08T19:06:53.694720
MEAN_MOTION    = 15.50762002
ECCENTRICITY   = .00049716
INCLINATION    = 51.6302
RA_OF_ASC_NODE = 161.9586
ARG_OF_PERICENTER = 204.3216
MEAN_ANOMALY   = 155.7539

EPHEMERIS_TYPE = 0
CLASSIFICATION_TYPE = U
NORAD_CAT_ID   = 66907
ELEMENT_SET_NO = 999
REV_AT_EPOCH   = 100
BSTAR          = .12614232E-2
MEAN_MOTION_DOT = .74227E-3
MEAN_MOTION_DDOT = 0

CCSDS_OMM_VERS = 2.0
CREATION_DATE  = 
ORIGINATOR     = 

OBJECT_NAME    = 1998-067XU
OBJECT_ID      = 1998-067XU
CENTER_NAME    = EARTH
REF_FRAME      = TEME
TIME_SYSTEM    = UTC
MEAN_ELEMENT_THEORY = SGP/SGP4

EPOCH          = 2025-12-08T22:12:12.980736
MEAN_MOTION    = 15.50818267
ECCENTRICITY   = .0005167
INCLINATION    = 51.6297
RA_OF_ASC_NODE = 161.3178
ARG_OF_PERICENTER = 203.3313
MEAN_ANOMALY   = 156.7442

EPHEMERIS_TYPE = 0
CLASSIFICATION_TYPE = U
NORAD_CAT_ID   = 66908
ELEMENT_SET_NO = 999
REV_AT_EPOCH   = 102
BSTAR          = .11183E-2
MEAN_MOTION_DOT = .65818E-3
MEAN_MOTION_DDOT = 0

CCSDS_OMM_VERS = 2.0
CREATION_DATE  = 
ORIGINATOR     = 

OBJECT_NAME    = SILVERSAT
OBJECT_ID      = 1998-067XV
CENTER_NAME    = EARTH
REF_FRAME      = TEME
TIME_SYSTEM    = UTC
MEAN_ELEMENT_THEORY = SGP/SGP4

EPOCH          = 2025-12-08T17:33:40.093920
MEAN_MOTION    = 15.50878297
ECCENTRICITY   = .0005012
INCLINATION    = 51.6297
RA_OF_ASC_NODE = 162.2763
ARG_OF_PERICENTER = 204.4469
MEAN_ANOMALY   = 155.6283

EPHEMERIS_TYPE = 0
CLASSIFICATION_TYPE = U
NORAD_CAT_ID   = 66909
ELEMENT_SET_NO = 999
REV_AT_EPOCH   = 99
BSTAR          = .13404205E-2
MEAN_MOTION_DOT = .79284E-3
MEAN_MOTION_DDOT = 0

CCSDS_OMM_VERS = 2.0
CREATION_DATE  = 
ORIGINATOR     = 

OBJECT_NAME    = 1998-067XW
OBJECT_ID      = 1998-067XW
CENTER_NAME    = EARTH
REF_FRAME      = TEME
TIME_SYSTEM    = UTC
MEAN_ELEMENT_THEORY = SGP/SGP4

EPOCH          = 2025-12-08T22:10:28.282080
MEAN_MOTION    = 15.51110893
ECCENTRICITY   = .0005927
INCLINATION    = 51.6296
RA_OF_ASC_NODE = 161.3100
ARG_OF_PERICENTER = 189.6161
MEAN_ANOMALY   = 170.4716

EPHEMERIS_TYPE = 0
CLASSIFICATION_TYPE = U
NORAD_CAT_ID   = 66910
ELEMENT_SET_NO = 999
REV_AT_EPOCH   = 102
BSTAR          = .11401E-2
MEAN_MOTION_DOT = .67841E-3
MEAN_MOTION_DDOT = 0

CCSDS_OMM_VERS = 2.0
CREATION_DATE  = 
ORIGINATOR     = 

OBJECT_NAME    = 1998-067XX
OBJECT_ID      = 1998-067XX
CENTER_NAME    = EARTH
REF_FRAME      = TEME
TIME_SYSTEM    = UTC
MEAN_ELEMENT_THEORY = SGP/SGP4

EPOCH          = 2025-12-09T02:48:25.031232
MEAN_MOTION    = 15.51276016
ECCENTRICITY   = .00057067
INCLINATION    = 51.6296
RA_OF_ASC_NODE = 160.3494
ARG_OF_PERICENTER = 191.2278
MEAN_ANOMALY   = 168.8584

EPHEMERIS_TYPE = 0
CLASSIFICATION_TYPE = U
NORAD_CAT_ID   = 66911
ELEMENT_SET_NO = 999
REV_AT_EPOCH   = 104
BSTAR          = .13712435E-2
MEAN_MOTION_DOT = .82324E-3
MEAN_MOTION_DDOT = 0

CCSDS_OMM_VERS = 2.0
CREATION_DATE  = 
ORIGINATOR     = 

OBJECT_NAME    = 1998-067XY
OBJECT_ID      = 1998-067XY
CENTER_NAME    = EARTH
REF_FRAME      = TEME
TIME_SYSTEM    = UTC
MEAN_ELEMENT_THEORY = SGP/SGP4

EPOCH          = 2025-12-08T19:07:24.190464
MEAN_MOTION    = 15.50590013
ECCENTRICITY   = .00050406
INCLINATION    = 51.6301
RA_OF_ASC_NODE = 161.9610
ARG_OF_PERICENTER = 202.8515
MEAN_ANOMALY   = 157.2251

EPHEMERIS_TYPE = 0
CLASSIFICATION_TYPE = U
NORAD_CAT_ID   = 66912
ELEMENT_SET_NO = 999
REV_AT_EPOCH   = 99
BSTAR          = .10396633E-2
MEAN_MOTION_DOT = .60617E-3
MEAN_MOTION_DDOT = 0

CCSDS_OMM_VERS = 2.0
CREATION_DATE  = 
ORIGINATOR     = 

OBJECT_NAME    = 2025-284A
OBJECT_ID      = 2025-284A
CENTER_NAME    = EARTH
REF_FRAME      = TEME
TIME_SYSTEM    = UTC
MEAN_ELEMENT_THEORY = SGP/SGP4

EPOCH          = 2025-12-09T07:15:51.775776
MEAN_MOTION    = 15.18815717
ECCENTRICITY   = .00080685
INCLINATION    = 80.4054
RA_OF_ASC_NODE = 134.1215
ARG_OF_PERICENTER = 257.9833
MEAN_ANOMALY   = 102.0491

EPHEMERIS_TYPE = 0
CLASSIFICATION_TYPE = U
NORAD_CAT_ID   = 66913
ELEMENT_SET_NO = 999
REV_AT_EPOCH   = 60
BSTAR          = .67487773E-3
MEAN_MOTION_DOT = .14088E-3
MEAN_MOTION_DDOT = 0

CCSDS_OMM_VERS = 2.0
CREATION_DATE  = 
ORIGINATOR     = 

OBJECT_NAME    = 2025-284B
OBJECT_ID      = 2025-284B
CENTER_NAME    = EARTH
REF_FRAME      = TEME
TIME_SYSTEM    = UTC
MEAN_ELEMENT_THEORY = SGP/SGP4

EPOCH          = 2025-12-07T23:38:29.179680
MEAN_MOTION    = 15.20093076
ECCENTRICITY   = .00128589
INCLINATION    = 80.4047
RA_OF_ASC_NODE = 135.7909
ARG_OF_PERICENTER = 245.1407
MEAN_ANOMALY   = 114.8485

EPHEMERIS_TYPE = 0
CLASSIFICATION_TYPE = U
NORAD_CAT_ID   = 66914
ELEMENT_SET_NO = 999
REV_AT_EPOCH   = 40
BSTAR          = .60156278E-3
MEAN_MOTION_DOT = .13048E-3
MEAN_MOTION_DDOT = 0

